ONEWEB-0321             
1 49191U 21083F   25211.91637599  .00000009  00000+0 -10718-4 0  9998
2 49191  87.9281 338.4440 0001961  88.6816 271.4542 13.20771442194427
ONEWEB-0322             
1 49192U 21083G   25211.91444356 -.00027552  00000+0 -75561-1 0  9993
2 49192  87.8958  24.0883 0002973 115.8030 244.3406 13.13601328188745
ONEWEB-0324             
1 49193U 21083H   25211.95054340  .00000054  00000+0  10345-3 0  9995
2 49193  87.9125  39.2591 0001638  87.0193 273.1126 13.18686136187668
ONEWEB-0325             
1 49194U 21083J   25211.87795724  .00000022  00000+0  23413-4 0  9991
2 49194  87.9127  39.2906 0001858  87.5757 272.5588 13.18687510187668
ONEWEB-0326             
1 49195U 21083K   25211.89293611  .00000086  00000+0  18422-3 0  9995
2 49195  87.9123  39.2771 0001808 101.9771 258.1564 13.18685887187655
ONEWEB-0327             
1 49196U 21083L   25211.81679341 -.00000067  00000+0 -20194-3 0  9996
2 49196  87.9121  39.3206 0001853  99.5194 260.6148 13.18685858187664
ONEWEB-0328             
1 49197U 21083M   25211.52343759 -.00000050  00000+0 -17210-3 0  9993
2 49197  87.8962  24.1032 0001674  91.1023 269.0298 13.13470350188671
ONEWEB-0331             
1 49198U 21083N   25211.88620133  .00000067  00000+0  13833-3 0  9990
2 49198  87.9124  39.2706 0001560 100.2037 259.9272 13.18687213187660
ONEWEB-0333             
1 49199U 21083P   25211.74689159 -.00000171  00000+0 -50397-3 0  9993
2 49199  87.8964  24.1292 0001887  91.4688 268.6658 13.13469896188712
ONEWEB-0334             
1 49200U 21083Q   25211.85798608  .00000060  00000+0  11494-3 0  9998
2 49200  87.9282 338.4887 0002663  81.1077 279.0357 13.20771758194373
ONEWEB-0335             
1 49201U 21083R   25211.89416755 -.00000276  00000+0 -78963-3 0  9998
2 49201  87.8961  24.0873 0001732  98.0995 262.0330 13.13469981188743
ONEWEB-0336             
1 49202U 21083S   25211.94156944  .00000195  00000+0  49817-3 0  9990
2 49202  87.8965  24.0712 0001898  94.2723 265.8623 13.13469589188740
ONEWEB-0337             
1 49203U 21083T   25211.95156867 -.00000060  00000+0 -19858-3 0  9991
2 49203  87.8971  24.0690 0001581  93.0630 267.0680 13.13471241188741
ONEWEB-0338             
1 49204U 21083U   25211.90850174  .00000050  00000+0  90323-4 0  9993
2 49204  87.9293 338.4728 0002069  90.2155 269.9216 13.20770633194408
ONEWEB-0339             
1 49205U 21083V   25211.88401046 -.00000248  00000+0 -71450-3 0  9991
2 49205  87.8965  24.0687 0001733  87.8364 272.2964 13.13468640188715
ONEWEB-0340             
1 49206U 21083W   25211.94889734  .00000032  00000+0  49545-4 0  9993
2 49206  87.9125  39.2619 0001773  91.6525 268.4811 13.18685120187631
ONEWEB-0341             
1 49207U 21083X   25211.87959346 -.00000044  00000+0 -14393-3 0  9990
2 49207  87.9128  39.2866 0001291  79.9426 280.1852 13.18683935187642
