[{"OBJECT_NAME":"ONEWEB-0321","OBJECT_ID":"2021-083F","EPOCH":"2025-07-30T21:59:34.885536","MEAN_MOTION":13.20771442,"ECCENTRICITY":0.0001961,"INCLINATION":87.9281,"RA_OF_ASC_NODE":338.444,"ARG_OF_PERICENTER":88.6816,"MEAN_ANOMALY":271.4542,"EPHEMERIS_TYPE":0,"CLASSIFICATION_TYPE":"U","NORAD_CAT_ID":49191,"ELEMENT_SET_NO":999,"REV_AT_EPOCH":19442,"BSTAR":-1.0718e-5,"MEAN_MOTION_DOT":9.0e-8,"MEAN_MOTION_DDOT":0},{"OBJECT_NAME":"ONEWEB-0322","OBJECT_ID":"2021-083G","EPOCH":"2025-07-30T21:56:47.923584","MEAN_MOTION":13.13601328,"ECCENTRICITY":0.0002973,"INCLINATION":87.8958,"RA_OF_ASC_NODE":24.0883,"ARG_OF_PERICENTER":115.803,"MEAN_ANOMALY":244.3406,"EPHEMERIS_TYPE":0,"CLASSIFICATION_TYPE":"U","NORAD_CAT_ID":49192,"ELEMENT_SET_NO":999,"REV_AT_EPOCH":18874,"BSTAR":-0.075561,"MEAN_MOTION_DOT":-0.00027552,"MEAN_MOTION_DDOT":0},{"OBJECT_NAME":"ONEWEB-0324","OBJECT_ID":"2021-083H","EPOCH":"2025-07-30T22:48:46.949760","MEAN_MOTION":13.18686136,"ECCENTRICITY":0.0001638,"INCLINATION":87.9125,"RA_OF_ASC_NODE":39.2591,"ARG_OF_PERICENTER":87.0193,"MEAN_ANOMALY":273.1126,"EPHEMERIS_TYPE":0,"CLASSIFICATION_TYPE":"U","NORAD_CAT_ID":49193,"ELEMENT_SET_NO":999,"REV_AT_EPOCH":18766,"BSTAR":0.00010345,"MEAN_MOTION_DOT":5.4e-7,"MEAN_MOTION_DDOT":0},{"OBJECT_NAME":"ONEWEB-0325","OBJECT_ID":"2021-083J","EPOCH":"2025-07-30T21:04:15.505536","MEAN_MOTION":13.1868751,"ECCENTRICITY":0.0001858,"INCLINATION":87.9127,"RA_OF_ASC_NODE":39.2906,"ARG_OF_PERICENTER":87.5757,"MEAN_ANOMALY":272.5588,"EPHEMERIS_TYPE":0,"CLASSIFICATION_TYPE":"U","NORAD_CAT_ID":49194,"ELEMENT_SET_NO":999,"REV_AT_EPOCH":18766,"BSTAR":2.3413e-5,"MEAN_MOTION_DOT":2.2e-7,"MEAN_MOTION_DDOT":0},{"OBJECT_NAME":"ONEWEB-0326","OBJECT_ID":"2021-083K","EPOCH":"2025-07-30T21:25:49.679904","MEAN_MOTION":13.18685887,"ECCENTRICITY":0.0001808,"INCLINATION":87.9123,"RA_OF_ASC_NODE":39.2771,"ARG_OF_PERICENTER":101.9771,"MEAN_ANOMALY":258.1564,"EPHEMERIS_TYPE":0,"CLASSIFICATION_TYPE":"U","NORAD_CAT_ID":49195,"ELEMENT_SET_NO":999,"REV_AT_EPOCH":18765,"BSTAR":0.00018422,"MEAN_MOTION_DOT":8.6e-7,"MEAN_MOTION_DDOT":0},{"OBJECT_NAME":"ONEWEB-0327","OBJECT_ID":"2021-083L","EPOCH":"2025-07-30T19:36:10.950624","MEAN_MOTION":13.18685858,"ECCENTRICITY":0.0001853,"INCLINATION":87.9121,"RA_OF_ASC_NODE":39.3206,"ARG_OF_PERICENTER":99.5194,"MEAN_ANOMALY":260.6148,"EPHEMERIS_TYPE":0,"CLASSIFICATION_TYPE":"U","NORAD_CAT_ID":49196,"ELEMENT_SET_NO":999,"REV_AT_EPOCH":18766,"BSTAR":-0.00020194,"MEAN_MOTION_DOT":-6.7e-7,"MEAN_MOTION_DDOT":0},{"OBJECT_NAME":"ONEWEB-0328","OBJECT_ID":"2021-083M","EPOCH":"2025-07-30T12:33:45.007776","MEAN_MOTION":13.1347035,"ECCENTRICITY":0.0001674,"INCLINATION":87.8962,"RA_OF_ASC_NODE":24.1032,"ARG_OF_PERICENTER":91.1023,"MEAN_ANOMALY":269.0298,"EPHEMERIS_TYPE":0,"CLASSIFICATION_TYPE":"U","NORAD_CAT_ID":49197,"ELEMENT_SET_NO":999,"REV_AT_EPOCH":18867,"BSTAR":-0.0001721,"MEAN_MOTION_DOT":-5.0e-7,"MEAN_MOTION_DDOT":0},{"OBJECT_NAME":"ONEWEB-0331","OBJECT_ID":"2021-083N","EPOCH":"2025-07-30T21:16:07.794912","MEAN_MOTION":13.18687213,"ECCENTRICITY":0.000156,"INCLINATION":87.9124,"RA_OF_ASC_NODE":39.2706,"ARG_OF_PERICENTER":100.2037,"MEAN_ANOMALY":259.9272,"EPHEMERIS_TYPE":0,"CLASSIFICATION_TYPE":"U","NORAD_CAT_ID":49198,"ELEMENT_SET_NO":999,"REV_AT_EPOCH":18766,"BSTAR":0.00013833,"MEAN_MOTION_DOT":6.7e-7,"MEAN_MOTION_DDOT":0},{"OBJECT_NAME":"ONEWEB-0333","OBJECT_ID":"2021-083P","EPOCH":"2025-07-30T17:55:31.433376","MEAN_MOTION":13.13469896,"ECCENTRICITY":0.0001887,"INCLINATION":87.8964,"RA_OF_ASC_NODE":24.1292,"ARG_OF_PERICENTER":91.4688,"MEAN_ANOMALY":268.6658,"EPHEMERIS_TYPE":0,"CLASSIFICATION_TYPE":"U","NORAD_CAT_ID":49199,"ELEMENT_SET_NO":999,"REV_AT_EPOCH":18871,"BSTAR":-0.00050397,"MEAN_MOTION_DOT":-1.71e-6,"MEAN_MOTION_DDOT":0},{"OBJECT_NAME":"ONEWEB-0334","OBJECT_ID":"2021-083Q","EPOCH":"2025-07-30T20:35:29.997312","MEAN_MOTION":13.20771758,"ECCENTRICITY":0.0002663,"INCLINATION":87.9282,"RA_OF_ASC_NODE":338.4887,"ARG_OF_PERICENTER":81.1077,"MEAN_ANOMALY":279.0357,"EPHEMERIS_TYPE":0,"CLASSIFICATION_TYPE":"U","NORAD_CAT_ID":49200,"ELEMENT_SET_NO":999,"REV_AT_EPOCH":19437,"BSTAR":0.00011494,"MEAN_MOTION_DOT":6.0e-7,"MEAN_MOTION_DDOT":0},{"OBJECT_NAME":"ONEWEB-0335","OBJECT_ID":"2021-083R","EPOCH":"2025-07-30T21:27:36.076320","MEAN_MOTION":13.13469981,"ECCENTRICITY":0.0001732,"INCLINATION":87.8961,"RA_OF_ASC_NODE":24.0873,"ARG_OF_PERICENTER":98.0995,"MEAN_ANOMALY":262.033,"EPHEMERIS_TYPE":0,"CLASSIFICATION_TYPE":"U","NORAD_CAT_ID":49201,"ELEMENT_SET_NO":999,"REV_AT_EPOCH":18874,"BSTAR":-0.00078963,"MEAN_MOTION_DOT":-2.76e-6,"MEAN_MOTION_DDOT":0},{"OBJECT_NAME":"ONEWEB-0336","OBJECT_ID":"2021-083S","EPOCH":"2025-07-30T22:35:51.599616","MEAN_MOTION":13.13469589,"ECCENTRICITY":0.0001898,"INCLINATION":87.8965,"RA_OF_ASC_NODE":24.0712,"ARG_OF_PERICENTER":94.2723,"MEAN_ANOMALY":265.8623,"EPHEMERIS_TYPE":0,"CLASSIFICATION_TYPE":"U","NORAD_CAT_ID":49202,"ELEMENT_SET_NO":999,"REV_AT_EPOCH":18874,"BSTAR":0.00049817,"MEAN_MOTION_DOT":1.95e-6,"MEAN_MOTION_DDOT":0},{"OBJECT_NAME":"ONEWEB-0337","OBJECT_ID":"2021-083T","EPOCH":"2025-07-30T22:50:15.533088","MEAN_MOTION":13.13471241,"ECCENTRICITY":0.0001581,"INCLINATION":87.8971,"RA_OF_ASC_NODE":24.069,"ARG_OF_PERICENTER":93.063,"MEAN_ANOMALY":267.068,"EPHEMERIS_TYPE":0,"CLASSIFICATION_TYPE":"U","NORAD_CAT_ID":49203,"ELEMENT_SET_NO":999,"REV_AT_EPOCH":18874,"BSTAR":-0.00019858,"MEAN_MOTION_DOT":-6.0e-7,"MEAN_MOTION_DDOT":0},{"OBJECT_NAME":"ONEWEB-0338","OBJECT_ID":"2021-083U","EPOCH":"2025-07-30T21:48:14.550336","MEAN_MOTION":13.20770633,"ECCENTRICITY":0.0002069,"INCLINATION":87.9293,"RA_OF_ASC_NODE":338.4728,"ARG_OF_PERICENTER":90.2155,"MEAN_ANOMALY":269.9216,"EPHEMERIS_TYPE":0,"CLASSIFICATION_TYPE":"U","NORAD_CAT_ID":49204,"ELEMENT_SET_NO":999,"REV_AT_EPOCH":19440,"BSTAR":9.0323e-5,"MEAN_MOTION_DOT":5.0e-7,"MEAN_MOTION_DDOT":0},{"OBJECT_NAME":"ONEWEB-0339","OBJECT_ID":"2021-083V","EPOCH":"2025-07-30T21:12:58.503744","MEAN_MOTION":13.1346864,"ECCENTRICITY":0.0001733,"INCLINATION":87.8965,"RA_OF_ASC_NODE":24.0687,"ARG_OF_PERICENTER":87.8364,"MEAN_ANOMALY":272.2964,"EPHEMERIS_TYPE":0,"CLASSIFICATION_TYPE":"U","NORAD_CAT_ID":49205,"ELEMENT_SET_NO":999,"REV_AT_EPOCH":18871,"BSTAR":-0.0007145,"MEAN_MOTION_DOT":-2.48e-6,"MEAN_MOTION_DDOT":0},{"OBJECT_NAME":"ONEWEB-0340","OBJECT_ID":"2021-083W","EPOCH":"2025-07-30T22:46:24.730176","MEAN_MOTION":13.1868512,"ECCENTRICITY":0.0001773,"INCLINATION":87.9125,"RA_OF_ASC_NODE":39.2619,"ARG_OF_PERICENTER":91.6525,"MEAN_ANOMALY":268.4811,"EPHEMERIS_TYPE":0,"CLASSIFICATION_TYPE":"U","NORAD_CAT_ID":49206,"ELEMENT_SET_NO":999,"REV_AT_EPOCH":18763,"BSTAR":4.9545e-5,"MEAN_MOTION_DOT":3.2e-7,"MEAN_MOTION_DDOT":0},{"OBJECT_NAME":"ONEWEB-0341","OBJECT_ID":"2021-083X","EPOCH":"2025-07-30T21:06:36.874944","MEAN_MOTION":13.18683935,"ECCENTRICITY":0.0001291,"INCLINATION":87.9128,"RA_OF_ASC_NODE":39.2866,"ARG_OF_PERICENTER":79.9426,"MEAN_ANOMALY":280.1852,"EPHEMERIS_TYPE":0,"CLASSIFICATION_TYPE":"U","NORAD_CAT_ID":49207,"ELEMENT_SET_NO":999,"REV_AT_EPOCH":18764,"BSTAR":-0.00014393,"MEAN_MOTION_DOT":-4.4e-7,"MEAN_MOTION_DDOT":0}]
